IRIDIUM 106             
1 41917U 17003A   25079.94895879  .00000102  00000+0  29447-4 0  9997
2 41917  86.3909 277.9064 0001673  78.4141 281.7243 14.34218287428243
IRIDIUM 103             
1 41918U 17003B   25079.58743683  .00000246  00000+0  80832-4 0  9997
2 41918  86.3909 277.9589 0002534  77.4208 282.7271 14.34218506428219
IRIDIUM 109             
1 41919U 17003C   25079.59377541  .00000033  00000+0  46769-5 0  9991
2 41919  86.3911 278.0082 0002329  90.5779 269.5684 14.34217752428183
IRIDIUM 102             
1 41920U 17003D   25079.63182896  .00000100  00000+0  28612-4 0  9996
2 41920  86.3908 277.9253 0002038  92.8801 267.2628 14.34218527428271
IRIDIUM 105             
1 41921U 17003E   25079.81186496  .00000371  00000+0  12533-3 0  9991
2 41921  86.3936 246.2630 0002109  89.7564 270.3873 14.34221834430153
IRIDIUM 104             
1 41922U 17003F   25079.57474759  .00000079  00000+0  21136-4 0  9992
2 41922  86.3909 277.9850 0002623  89.1496 271.0000 14.34218193428250
IRIDIUM 114             
1 41923U 17003G   25079.58108953  .00000050  00000+0  10612-4 0  9990
2 41923  86.3909 277.9673 0002226  82.8510 277.2938 14.34218006428239
IRIDIUM 108             
1 41924U 17003H   25079.81868415  .00000063  00000+0  15527-4 0  9997
2 41924  86.3930 246.1668 0001795  90.0123 270.1279 14.34218033430128
